STARLINK-31278          
1 59163U 24044M   26068.53082861  .00001143  00000+0  51076-4 0  9994
2 59163  43.0038 107.7183 0001994 287.1664  72.8969 15.27566797113548
FLOCK 4G-2              
1 62661U 25009BE  26068.66207492  .00013752  00000+0  51068-3 0  9995
2 62661  97.4044 151.2221 0003181 329.2677  30.8376 15.27675260121321
